STARLINK-36711          
1 68040U 26041A   26091.16621301  .00292100  00000+0  18388-2 0  9992
2 68040  53.1564 310.2214 0003181 178.1920 181.9112 15.75310189  4768
STARLINK-36825          
1 68041U 26041B   26091.16671296  .00006091  00000+0  43907-4 0  9990
2 68041  53.1572 309.5875 0000703  90.7887 221.1586 15.75219054  5997
STARLINK-36925          
1 68042U 26041C   26091.16671296  .00051837  00000+0  34071-3 0  9990
2 68042  53.1555 310.2240 0000855  63.1056 297.9371 15.75207658  5994
STARLINK-36902          
1 68043U 26041D   26091.12083127  .00286914  00000+0  18048-2 0  9998
2 68043  53.1587 309.9203 0000563  70.6156 289.4925 15.75343125  4769
STARLINK-36966          
1 68044U 26041E   26091.16200464  .00336254  00000+0  21010-2 0  9994
2 68044  53.1578 310.1949 0001038  64.4574 295.6554 15.75354703  4765
STARLINK-36864          
1 68045U 26041F   26091.16167920  .00323354  00000+0  20214-2 0  9996
2 68045  53.1581 310.1924 0000652  30.5863 329.5195 15.75379642  4766
STARLINK-36321          
1 68046U 26041G   26091.00756035  .00348040  00000+0  21794-2 0  9994
2 68046  53.1566 310.6413 0001302  47.9370 312.1761 15.75270715  4742
STARLINK-36181          
1 68047U 26041H   26091.00003471  .00042871  00000+0  28267-3 0  9990
2 68047  53.1580 310.4702 0001150  56.7976   3.6447 15.75218076  5846
STARLINK-36318          
1 68048U 26041J   26091.09403325  .00246101  00000+0  15592-2 0  9990
2 68048  53.1588 310.4791 0000847  42.5254 317.5832 15.75299896  4750
STARLINK-36885          
1 68049U 26041K   26091.09369558  .00145021  00000+0  93092-3 0  9991
2 68049  53.1596 310.4762 0000676 129.4073 230.7008 15.75316665  4757
STARLINK-36945          
1 68050U 26041L   26090.99427228  .00209025  00000+0  13318-2 0  9997
2 68050  53.1591 310.5542 0001487 101.1964 258.9223 15.75281936  4740
STARLINK-35911          
1 68051U 26041M   26090.98973270  .00202496  00000+0  12900-2 0  9991
2 68051  53.1589 310.5220 0000893  54.0479 306.0624 15.75305415  4747
STARLINK-35808          
1 68052U 26041N   26091.19822519  .00131282  00000+0  84605-3 0  9991
2 68052  53.1560 309.6963 0001084  51.2041 308.9076 15.75274331  4774
STARLINK-36919          
1 68053U 26041P   26090.98519316  .00385319  00000+0  23898-2 0  9994
2 68053  53.1572 310.4907 0000196 204.8905 155.2106 15.75382171  4740
STARLINK-36924          
1 68054U 26041Q   26091.00003471 -.00110102  00000+0 -72241-3 0  9994
2 68054  53.1587 310.8957 0000783  72.1167 140.4277 15.75272423  5962
STARLINK-35998          
1 68055U 26041R   26091.19335242  .00251464  00000+0  15892-2 0  9992
2 68055  53.1576 309.6635 0000234 130.2331 229.8710 15.75340421  4776
STARLINK-36845          
1 68056U 26041S   26091.18881766  .00104778  00000+0  67740-3 0  9994
2 68056  53.1585 309.6341 0000721  76.0127 284.0974 15.75301446  4771
